# Made by eph2tle, compiled Feb  2 2025 14:11:09
# Run at Thu Feb 27 21:44:50 2025 UTC
#
#    The following TLEs (Two-Line Elements) were generated by fitting
# a numerically-integrated ephemeris,  based on the orbit given below,
# to the SDP4/SGP4 models.  Each TLE is good for the interval between
# its epoch and the epoch of the subsequent TLE (usually one day).
# The maximum deviation between the numerically integrated ephemerides
# and the TLE-based ephemeris, in kilometers,  is given for each TLE
# as the "worst residual".
#
#    This fitting is done using the 'eph2tle' code packaged with Find_Orb.
# The code has details on how the TLEs were computed :
#
#    https://github.com/Bill-Gray/find_orb/eph2tle.cpp
#
#    Be warned:  the error given is that between the numerically
# integrated ephems and the TLE model.  There will usually be at
# least some additional difference between the ephems and the actual
# motion of the satellite,  especially if the ephemerides are based
# on a short arc.  If the following orbital elements say something
# like "[based on] 10 observations 2015 Jan. 1-13",  and the TLEs
# are for 2015 May,  the extrapolation may be tenuous at best.  If
# your application requires a specific level of accuracy,  you may
# want to contact me;  I can give you some idea as to the fit of the
# underlying data (and possibly TLEs based on newer data).
#
#   You can usually find the underlying observational data,  and the
# fitted orbit,  residuals,  ephemerides,  and sometimes some comments
# about the object,  among the pages listed at
#
#    https://www.projectpluto.com/pluto/mpecs/pseudo.htm
#
#    WARNING:  for this object,  "normal" TLEs cannot be fitted.  (This
# usually means an object with an hyperbolic or nearly-parabolic orbit.)
# For this and similar cases,   an alternative model is used,  in which
# most of the traditional TLE data is replaced by six signed 8-digit hex
# numbers.  These six numbers are a state vector,  numerically integrated
# using a simplified force model.  This is necessary for objects at L2 or
# L1,  and sometimes for objects in high orbits where the SDP4/SGP4 model
# fails.  Some documentation is in 'get_el.cpp' in the source code at
# https://www.github.com/Bill-Gray/sat_code ; look for 'hex' in that file,
# with the actual integration done in 'sdp4.cpp'.  But be aware:  it's my
# own extension,  doesn't work with other code,  and is therefore used
# only when necessary.
#
#    Also,  if you use a TLE outside the "correct" time range (between
# its MJD and that of the next TLE),  all bets are off.  I've carefully
# computed and minimized the worst error over the "correct" time frame,
# but the ephemeris may (or may not) diverge wildly outside of it.
#
# Ephem range: 60734.000000 60907.000000 1.000000
# Created from Horizons data by 'jpl2mpc', ver Feb 27 2025, at Thu Feb 27 21:43:19 2025 UTC
# *******************************************************************************
#  Revised: Feb 27, 2025    Lunar Trailblazer (spacecraft) / (Sun)           -242
#                        https://trailblazer.caltech.edu/index.html
#
#  MISSION LAUNCH DATE:                            MOON ARRIVAL DATE:
#   2025-Feb-27 00:16:32 UTC                       4-7 months after launch
#
#  LAUNCH VEHICLE:
#   SpaceX Falcon 9
#   Launch Complex 39A, Kennedy Space Center
#
#  BACKGROUND:
#   Lunar Trailblazer is a NASA mission to understand the form, abundance, and
#   distribution of water on the Moon, and the lunar water cycle:
#
#    * Determine the form and abundance of water on the sunlit side of the Moon
#    * Measure how the distribution of water changes across the lunar surface
#       over time
#    * Determine the form and abundance of ice inside permanently shadowed
#       craters --  locations that do not receive direct sunlight
#    * Develop high-resolution temperature maps of the lunar surface and study
#       how temperature affects the distribution of water
#    * Improve understanding of water cycles on airless bodies in the solar
#       system
#
#   After launch, there will be a 4-7 month long cruise phase to a lunar polar
#   orbit ~100 km over the Moon's surface.
#
#   Over the following ~1.5 years, it will orbit the Moon 12 times a day for
#   the science mission phase.
#
#  SPACECRAFT PHYSICAL PROPERTIES:
#    Total mass: 200 kg
#    3.5 meters wide with two solar panels deployed
#
#  INSTRUMENTS:
#   High-resolution Volatiles and Minerals Moon Mapper (HVM3, a shortwave
#    infrared imaging spetrometer)
#   Lunar Thermal Mapper (LTM, mid-imfrared imager)
#
#  SPACECRAFT TRAJECTORY:
#   Post-launch trajectory from JPL navigation, with planning predicts
#   after Feb 27 10:39 UTC
#
#  Trajectory files                                       Start          End
#  -------------------------------------------------   -----------   -----------
#  ltb_trj_od001v1                                     2025-Feb-27   2025-Aug-20
# *******************************************************************************
#
#
# *******************************************************************************
# Ephemeris / WWW_USER Thu Feb 27 13:42:53 2025 Pasadena, USA      / Horizons
# *******************************************************************************
# Target body name: Lunar Trailblazer (spacecraft) (-242) {source: ltb_current}
# Center body name: Earth (399)                     {source: DE441}
# Center-site name: BODY CENTER
# *******************************************************************************
# Start time      : A.D. 2025-Feb-28 00:00:00.0000 TDB
# Stop  time      : A.D. 2025-Aug-20 00:00:00.0000 TDB
# Step-size       : 1730 steps
# *******************************************************************************
# Center geodetic : 0.0, 0.0, 0.0                   {E-lon(deg),Lat(deg),Alt(km)}
# Center cylindric: 0.0, 0.0, 0.0                   {E-lon(deg),Dxy(km),Dz(km)}
# Center radii    : 6378.137, 6378.137, 6356.752 km {Equator_a, b, pole_c}
# Output units    : KM-S
# Calendar mode   : Mixed Julian/Gregorian
# Output type     : GEOMETRIC cartesian states
# Output format   : 2 (position and velocity)
# EOP file        : eop.250226.p250525
# EOP coverage    : DATA-BASED 1962-JAN-20 TO 2025-FEB-26. PREDICTS-> 2025-MAY-24
# Reference frame : Ecliptic of J2000.0
# *******************************************************************************
# JDTDB
#    X     Y     Z
#    VX    VY    VZ
# *******************************************************************************
#
# Elements after  4 Mar 2025 :
#
# Orbital elements:  2025-038C = NORAD 63101 = Lunar Trailblazer
#    Perihelion 2025 Feb 5.525271 +/- 3.8832e-5 TT = 12:36:23.4 (JD 2460712.025271)
# Epoch 2025 Mar 29.0 TT; AMR 0.0134 +/- 0.000172 m^2/kg   Earth MOID: 0.0043
# M  47.560680316 +/- 3.5207e-5       (J2000 ecliptic)             l0
# n   0.923961748 +/- 2.3933e-8       Peri.  266.775394 +/- 0.0002232
# a   1.043998932 +/- 1.8027e-8       Node   229.335441 +/- 0.0001963
# e   0.05145047 +/- 4.1229e-8        Incl.    0.168076 +/- 3.8992e-7
# P   1.067/389.619d         H 29.94  G  0.15   U  1.0
# q 0.990284687 +/- 3.157e-8    Q 1.097713178 +/- 5.9034e-8
# From 76 observations 2025 Mar. 4-29; mean residual 0".276
#
# 1 NoradU COSPAR   Epoch.epoch     dn/dt/2  d2n/dt2/6 BSTAR    T El# C
# 2 NoradU Inclina RAAscNode Eccent  ArgPeri MeanAno  MeanMotion Rev# C

# Worst residual: 0.55 km
# MJD 60734.000000 (2025 Feb 28  0:00)
Lunar Trailblazer = 2025-038C = NORAD 63101
1 63101U 25038C   25058.99919926 +0031BL6Y +000WI3Z5 +000KKGS1H 26157
2 63101                          +0006VLT5 +00042WOP +0002EC71     00

# Worst residual: 3.97 km
# MJD 60735.000000 (2025 Mar  1  0:00)
Lunar Trailblazer = 2025-038C = NORAD 63101
1 63101U 25038C   25059.99919926 +0048M3G2 +001Q6KJJ +0011TPI8H 26153
2 63101                          +0003L00M +0002VMD9 +0001NMC2     00

# Worst residual: 29.48 km
# MJD 60736.000000 (2025 Mar  2  0:00)
Lunar Trailblazer = 2025-038C = NORAD 63101
1 63101U 25038C   25060.99919926 +004V3UQD +002B18SQ +001DPMI3H 26153
2 63101                          +0001QUEB +0001YS8U +00013V08     05

# Worst residual: 10123.81 km
# MJD 60737.000000 (2025 Mar  3  0:00)
Lunar Trailblazer = 2025-038C = NORAD 63101
1 63101U 25038C   25061.99919926 +0054CK1C +002NXHK0 +001KT0L6H 26151
2 63101                          +0000HUIF +0000XOS4 +0000H4ND     01

# Worst residual: 79.37 km
# MJD 60738.000000 (2025 Mar  4  0:00)
2025-038C = NORAD 63101 = Lunar Trailblazer
1 63101U 25038C   25062.99919926 +004GBFT9 +003GWJRZ +0013WDRNH 26489
2 63101                          -000695WJ +0006EIMX -0002ET27     02

# Worst residual: 4.30 km
# MJD 60739.000000 (2025 Mar  5  0:00)
2025-038C = NORAD 63101 = Lunar Trailblazer
1 63101U 25038C   25063.99919926 +002TXPNW +004U9GXI +000JW3B7H 26485
2 63101                          -00078GYU +0004YZDQ -0002B6VD     02

# Worst residual: 0.90 km
# MJD 60740.000000 (2025 Mar  6  0:00)
2025-038C = NORAD 63101 = Lunar Trailblazer
1 63101U 25038C   25064.99919926 +0010NFKN +005U6IMP -00005OZ9H 26488
2 63101                          -0007S2G9 +0003C5Y3 -0002BAIU     06

# Worst residual: 0.48 km
# MJD 60741.000000 (2025 Mar  7  0:00)
2025-038C = NORAD 63101 = Lunar Trailblazer
1 63101U 25038C   25065.99919926 -000UY6LN +006GE4G1 -000JS5CCH 26486
2 63101                          -0007SNAI +0001UNTR -00027PPB     02

# Worst residual: 0.43 km
# MJD 60742.000000 (2025 Mar  8  0:00)
2025-038C = NORAD 63101 = Lunar Trailblazer
1 63101U 25038C   25066.99919926 -002P5KQ1 +006R5NR5 -001295H5H 26481
2 63101                          -0007HUMO +0000P51P -000221BO     03

# Worst residual: 0.31 km
# MJD 60743.000000 (2025 Mar  9  0:00)
2025-038C = NORAD 63101 = Lunar Trailblazer
1 63101U 25038C   25067.99919926 -004G4YAR +006TDW73 -001JAAS2H 26483
2 63101                          -00072ODY -00004V3G -0001VWPW     03

